[{"OBJECT_NAME":"YAOGAN-30 09C","OBJECT_ID":"2021-039C","EPOCH":"2026-03-09T23:18:27.367776","MEAN_MOTION":15.02221245,"ECCENTRICITY":0.00033191,"INCLINATION":34.9945,"RA_OF_ASC_NODE":275.1705,"ARG_OF_PERICENTER":299.331,"MEAN_ANOMALY":60.7067,"EPHEMERIS_TYPE":0,"CLASSIFICATION_TYPE":"U","NORAD_CAT_ID":48425,"ELEMENT_SET_NO":999,"REV_AT_EPOCH":26462,"BSTAR":0.00027769734,"MEAN_MOTION_DOT":3.708e-5,"MEAN_MOTION_DDOT":0},{"OBJECT_NAME":"STARLINK-6287","OBJECT_ID":"2023-061AG","EPOCH":"2026-03-09T08:35:57.849216","MEAN_MOTION":15.02534595,"ECCENTRICITY":0.00014249,"INCLINATION":43.0036,"RA_OF_ASC_NODE":186.3692,"ARG_OF_PERICENTER":267.5844,"MEAN_ANOMALY":92.4835,"EPHEMERIS_TYPE":0,"CLASSIFICATION_TYPE":"U","NORAD_CAT_ID":56404,"ELEMENT_SET_NO":999,"REV_AT_EPOCH":15685,"BSTAR":3.8842138e-5,"MEAN_MOTION_DOT":3.21e-6,"MEAN_MOTION_DDOT":0}]
